{
  "norad_id": 34661,
  "name": "NAVSTAR 63 (USA 203)",
  "history": [
    {
      "epoch": "2026-03-28T18:44:27.547296",
      "apogee_km": 20567.360318523366,
      "perigee_km": 19798.564698684535,
      "latitude_deg": -36.46766867638181,
      "longitude_deg": -118.93605855992064,
      "semi_major_axis_km": 26561.099508603947,
      "eccentricity": 0.01447221,
      "inclination_deg": 54.4989,
      "raan_deg": 213.8776,
      "arg_perigee_deg": 61.5073,
      "mean_anomaly_deg": 299.8803,
      "mean_motion_rev_day": 2.0055509
    }
  ]
}